[{"OBJECT_NAME":"STARLINK-35463","OBJECT_ID":"2025-262H","EPOCH":"2026-03-09T00:34:29.402688","MEAN_MOTION":15.27593978,"ECCENTRICITY":0.00018439,"INCLINATION":43.0054,"RA_OF_ASC_NODE":300.0113,"ARG_OF_PERICENTER":257.2527,"MEAN_ANOMALY":102.8119,"EPHEMERIS_TYPE":0,"CLASSIFICATION_TYPE":"U","NORAD_CAT_ID":66463,"ELEMENT_SET_NO":999,"REV_AT_EPOCH":1880,"BSTAR":0.0013035426,"MEAN_MOTION_DOT":0.00035798,"MEAN_MOTION_DDOT":0},{"OBJECT_NAME":"SL-3 R\/B","OBJECT_ID":"1982-027B","EPOCH":"2026-03-09T22:44:40.208640","MEAN_MOTION":15.28335844,"ECCENTRICITY":0.00065199,"INCLINATION":81.188,"RA_OF_ASC_NODE":37.4466,"ARG_OF_PERICENTER":276.581,"MEAN_ANOMALY":83.4683,"EPHEMERIS_TYPE":0,"CLASSIFICATION_TYPE":"U","NORAD_CAT_ID":13121,"ELEMENT_SET_NO":999,"REV_AT_EPOCH":39859,"BSTAR":0.00030526741,"MEAN_MOTION_DOT":8.453e-5,"MEAN_MOTION_DDOT":0}]
